#dP2018  5  5  0  0  0.00000000      96 __u+U IGS08 FIT  IAC
## 1999 518400.00000000   900.00000000 58243 0.0000000000000
+   85   C01C02C03C04C05C06C07C08C09C10C11C12C13C14E01E02E03
+        E04E05E07E08E09E11E12E14E18E19E24E26E30G01G02G03G05
+        G06G07G08G09G10G11G12G13G14G15G16G17G18G19G20G21G22
+        G24G25G26G27G28G29G30G31G32J01J02J03R01R02R03R04R07
+        R08R09R10R11R13R14R15R16R17R18R19R20R21R22R23R24R26
++         0 12 12 12 12  8  8  9  8  8  7  7  8  8  7  7  7
++         7  7  7  7  7  7  7  7  8  7  7  7  7  3  3  3  3
++         3  3  3  3  3  3  3  3  3  3  3  3  3  3  3  3  3
++         3  3  3  3  3  3  3  3  3  9 11 12  5  5  5  5  5
++         5  5  5  5  5  5  5  5  5  5  5  5  5  5  5  5  8
%c M  cc GPS ccc cccc cccc cccc cccc ccccc ccccc ccccc ccccc
%c cc cc ccc ccc cccc cccc cccc cccc ccccc ccccc ccccc ccccc
%f  1.2500000  1.025000000  0.00000000000  0.000000000000000
%f  0.0000000  0.000000000  0.00000000000  0.000000000000000
%i    0    0    0    0      0      0      0      0         0
%i    0    0    0    0      0      0      0      0         0
/* INFORMATION & ANALYSIS CENTER (IAC)            FINAL DATA
/* S/V CLOCKS ARE ALIGNED TO GPS & GLONASS TIME RESPECTIVELY
/* USING THE BROADCAST EPHEMERIS                            
/* PCV:IGS14_1992 OL/AL:FES2004  NONE     YN ORB:CoN CLK:CoN
*  2018 05 05 13 45  0.00000000
PC01 -32333.383381  27049.309751   -560.386419 999999.999999
PC02   4413.773163  41916.293328   1229.328200    557.037329
PC03 -14745.535222  39549.531779    240.015759   -437.116217
PC04 -39609.652567  14450.217617    -14.973660 999999.999999
PC05  21899.598508  36014.068481   1491.790904     23.431458
PC06 -20952.707979  36763.773579  -1143.881061     10.985110
PC07  -8078.405638  29034.462086 -29201.785083    161.976593
PC08 -21182.987054  19173.758519  30994.561880    322.712619
PC09 -10228.037337  37426.191157 -16707.773828   -157.659825
PC10   5094.405068  36446.322174 -20167.217692   -208.837426
PC11   9615.093466 -18454.185091 -18572.412335   -495.515117
PC12  24141.877745 -13892.432988  -2292.859496    433.928922
PC13  -4851.463819  23461.491615  34691.011178   -318.080376
PC14   4367.958641 -27188.030293  -4277.279486    273.405670
PE01  -1534.077767 -22763.592285  18854.623260   -337.556790
PE02   1548.384686  22777.096742 -18850.605903     12.646168
PE03  -8690.840293  27903.173272  -4660.239408    -28.650326
PE04  -6349.218885 -20870.320986  20014.924123    -28.099152
PE05 -18680.941651  18604.111766  13467.672404    271.369240
PE07  17708.169375   1547.151502 -23655.662604     38.379650
PE08   6415.716337  20775.809921 -20070.827916   6590.874506
PE09 -17581.142056  -1396.156783  23783.477256   6800.748271
PE11 -28542.399067  -1772.616805  -7693.287302   1828.852785
PE12 -14513.531232 -13243.012473 -22140.823853   4089.146427
PE14   4955.075529 -23387.299261 -18576.338306   6588.006531
PE18 -16565.723213  19957.912065   7098.399638   6231.256866
PE19   9863.371038 -27751.565589   2922.457164     22.008261
PE24 -21793.530770 -11721.482017 -16246.795300   6722.991408
PE26  25689.429103 -10200.673614 -10582.551872   5972.606171
PE30  16500.943006  24513.567911  -1804.113567   5865.357690
PG01 -20734.985146 -13863.873739  -9697.950159    -45.548762
PG02   -769.785105  15935.134461  21818.296104    124.433605
PG03 -12986.335447 -19597.713528  12399.399514     64.430454
PG05   1403.046284  25650.556430   6199.596206     -8.524210
PG06 -15567.066293   9048.070369  19568.250933    405.249739
PG07 -25765.544834  -5121.528269  -5109.665134    196.708655
PG08  -4600.574735 -15408.313140 -21060.411388   -100.203786
PG09 -20513.955742   2855.761075  16602.896642    513.106118
PG10  12400.404892 -11042.476839 -20651.991285    183.216008
PG11 -17723.145568 -11312.149309 -16700.881447   -736.751133
PG12  10017.841567  22468.010039  10073.926803    335.559885
PG13  -5716.180375  18971.005111 -17800.744677    -94.696200
PG14  16790.564700 -19249.856013   7228.008999    -96.682850
PG15   7297.786897  14976.846129 -20835.950640   -354.635769
PG16   1045.545325 -25479.740042   6428.748735     25.731919
PG17 -21131.523332  15864.436770  -1498.594714   -100.843254
PG18 -13594.059042 -16191.925355 -16643.026512      5.279639
PG19 -18973.997474  18009.142246   4848.283742   -438.656223
PG20  17284.792391   9370.859471 -18038.804348    507.445100
PG21  25268.485000   1474.063494  -7223.803206   -398.941516
PG22 -10085.666566 -24213.489959   4453.623183   -381.249992
PG24  18414.678448  14713.578280 -12634.184682    -49.351786
PG25  15333.483107  10167.094115  19062.860357   -580.325002
PG26   6633.300626 -20359.297091  15616.803002   -159.533788
PG27   8182.199220 -20601.874013 -14507.921753    369.613311
PG28 -13285.135068   7191.630813 -21233.800506    712.508543
PG29  18906.076705    783.313604  18611.014529    455.093191
PG30 -22688.765771   1968.918733 -13795.593208     77.472674
PG31  14635.311162  -9598.162748  20134.004172    123.773723
PG32  20882.442125 -16019.845813  -3176.264133   -513.268173
PJ01 -26450.525150  26223.662106  24862.953938   -274.897226
PJ02 -23996.428655  16130.642985 -26395.956651    -23.303770
PJ03 -27652.610303  31664.991779    793.273664    -15.601005
PR01 -10502.370082  19992.669652  11851.917223     25.801356
PR02  -2224.658481  24230.401759  -7694.193541    308.229983
PR03   7000.690262  13042.415900 -20741.118085    131.350011
PR04  12103.417401  -6284.879420 -21531.828426    259.775340
PR07  -7242.500672 -12558.087869  21017.913032    -36.821279
PR08 -12086.591442   5564.469044  21819.103317     23.289749
PR09  -9117.880721 -18842.950421  14633.057927     29.819789
PR10 -18775.167019 -17229.136515  -1900.157905     23.834072
PR11 -17565.316767  -5303.498635 -17732.819435    -28.071961
PR13   9706.787050  18569.802526 -14566.369202    -10.100367
PR14  18757.818395  17200.058675   1639.665295     26.956067
PR15  18730.546673   8634.859856  15079.140822     -9.740774
PR16   6543.380624  -8879.198646  22969.210781     91.814208
PR17  15416.417964   5083.659252  19694.825649    130.055978
PR18  24406.642799  -4054.189910   6075.940085    194.442548
PR19  20219.160969 -10630.338265 -11342.540109    -51.705182
PR20   2835.281583 -11324.235032 -22664.833640   -336.854134
PR21 -15635.726380  -4852.556382 -19553.639280     17.799218
PR22 -24747.366418   5051.078805  -4043.937925    -40.452923
PR23 -17404.945478  11745.582862  14484.677958    151.805062
PR24  -1761.705944  11249.310230  22804.330362   -165.878009
PR26   3356.245011 -11560.895529 -22478.935196     17.548971
EOF
